STARLINK-36736
1 67911U 26036H   26061.16668981 -.01451850  00000+0 -58509-2 0  9995
2 67911  42.9951 295.8959 0001712 276.7518 267.4798 15.88302776  2439
